GSAT-17                 
1 42815U 17040B   26159.14836605 -.00000242  00000+0  00000+0 0  9995
2 42815   0.1029  88.3931 0001616 214.7033 100.3675  1.00271461 32694
INTELSAT 35E (IS-35E)   
1 42818U 17041A   26158.69524117 -.00000223  00000+0  00000+0 0  9999
2 42818   0.0202  62.5317 0001842  13.9992  35.3772  1.00272821 32725
COSMOS 2520             
1 42907U 17046A   26158.49711875  .00000151  00000+0  00000+0 0  9999
2 42907   0.0450  86.1983 0001130  65.7096 327.9728  1.00272500 32309
TDRS 13                 
1 42915U 17047A   26159.13030714 -.00000086  00000+0  00000+0 0  9995
2 42915   3.4491   2.4925 0014613 105.1376 184.3676  1.00272097 32259
QZS-3 (MICHIBIKI-3)     
1 42917U 17048A   26159.17961502 -.00000332  00000+0  00000+0 0  9994
2 42917   0.0576 183.8974 0002716 262.6865   1.6793  1.00269855 32168
AMAZONAS 5              
1 42934U 17053A   26159.11777605 -.00000267  00000+0  00000+0 0  9999
2 42934   0.0330 320.7434 0002511  68.9782 208.2063  1.00270654 31956
ASIASAT 9               
1 42942U 17057A   26158.94017586 -.00000344  00000+0  00000+0 0  9993
2 42942   0.0114  80.9491 0002482 346.4825 289.4719  1.00270474 31760
INTELSAT 37E (IS-37E)   
1 42950U 17059A   26159.13030714  .00000000  00000+0  00000+0 0  9992
2 42950   0.0181 345.8268 0002401 116.5219 183.0883  1.00268330 31974
BSAT-4A                 
1 42951U 17059B   26158.79511955 -.00000335  00000+0  00000+0 0  9997
2 42951   0.0352   2.7050 0004330  66.0952 223.4540  1.00268742 31706
QZS-4 (MICHIBIKI-4)     
1 42965U 17062A   26158.37145416 -.00000311  00000+0  00000+0 0  9999
2 42965  40.1143 343.6087 0744946 271.5683 272.0991  1.00254196 31707
SES-11 (ECHOSTAR 105)   
1 42967U 17063A   26159.10904747 -.00000074  00000+0  00000+0 0  9990
2 42967   0.0150 343.5044 0002744 104.7426 102.5646  1.00271011 31630
KOREASAT 5A             
1 42984U 17067A   26159.00967633 -.00000343  00000+0  00000+0 0  9994
2 42984   0.0132 310.2115 0000637 129.6603 293.1789  1.00272022 31437
ALCOMSAT 1              
1 43039U 17078A   26159.13586205 -.00000170  00000+0  00000+0 0  9992
2 43039   0.0325  68.8948 0002409   4.4985 207.2511  1.00272981 31203
SBIRS GEO-3 (USA 282)   
1 43162U 18009A   26159.02700928  .00000143  00000+0  00000+0 0  9991
2 43162   2.1771  11.6413 0002143  61.7034  33.4097  1.00272376 30752
AL YAH 3                
1 43174U 18012A   26159.13030714 -.00000140  00000+0  00000+0 0  9997
2 43174   1.5275  83.2194 0004152 354.4241 205.7013  1.00271560 30758
SES-14                  
1 43175U 18012B   26159.12046273 -.00000263  00000+0  00000+0 0  9990
2 43175   0.0187  22.5223 0001107  56.9226 172.9426  1.00271159  6938
GOES 17                 
1 43226U 18022A   26159.04078934 -.00000167  00000+0  00000+0 0  9991
2 43226   0.9130  85.8739 0000634   8.7123  87.0479  1.00271990 30339
HISPASAT 30W-6          
1 43228U 18023A   26159.13586205 -.00000201  00000+0  00000+0 0  9998
2 43228   0.0445  40.4603 0006135  26.8979 208.0868  1.00270551 30317
SUPERBIRD-B3            
1 43271U 18033A   26159.19365394 -.00000077  00000+0  00000+0 0  9998
2 43271   0.0208 292.3149 0001313 165.6877  30.3100  1.00270977 29974
HYLAS 4                 
1 43272U 18033B   26158.76671706 -.00000219  00000+0  00000+0 0  9996
2 43272   0.0217  65.2841 0001187  12.7835  60.6584  1.00269650 29974
IRNSS-1I                
1 43286U 18035A   26158.85542066  .00000093  00000+0  00000+0 0  9998
2 43286  28.7324  74.3437 0016794 191.1126 353.6742  1.00270205 29982
USA 283                 
1 43339U 18036A   26158.44341078  .00000000  00000+0  00000+0 0  9991
2 43339   0.0123 333.7419 0000458 159.1187  56.7029  1.00268454 25195
COSMOS 2526             
1 43432U 18037A   26158.72740602 -.00000330  00000+0  00000+0 0  9990
2 43432   0.0266  74.0498 0000652 173.6830  38.3059  1.00272279 29868
APSTAR-6C               
1 43450U 18041A   26159.22768348 -.00000302  00000+0  00000+0 0  9997
2 43450   0.0268 326.8455 0001228  29.4909 116.2579  1.00273495 29725
BANGABANDHUSAT-1        
1 43463U 18044A   26159.08200132 -.00000347  00000+0  00000+0 0  9999
2 43463   0.0395  97.1689 0001977 351.3304 316.6044  1.00272268 29612
SES-12                  
1 43488U 18049A   26159.14853940 -.00000254  00000+0  00000+0 0  9996
2 43488   0.0264  43.0119 0000960 262.2840  99.7291  1.00271715 29325
FENGYUN 2H              
1 43491U 18050A   26159.07428795 -.00000115  00000+0  00000+0 0  9996
2 43491   3.0070  79.1794 0001516 126.1581 157.3291  1.00271427 29347
BEIDOU-2 IGSO-7         
1 43539U 18057A   26158.95590420  .00000024  00000+0  00000+0 0  9995
2 43539  55.1932 163.1382 0104854 237.9598 310.0357  1.00254381 29037
TELSTAR 19V             
1 43562U 18059A   26159.11734272 -.00000264  00000+0  00000+0 0  9994
2 43562   0.0027 199.5599 0002669 271.3595 124.8244  1.00269756 29050
TELKOM 4 (MERAH PUTIH)  
1 43587U 18064A   26158.93731583  .00000000  00000+0  00000+0 0  9995
2 43587   0.0162 329.7438 0001408 140.0228 232.0053  1.00268773 28788
TELSTAR 18V             
1 43611U 18069A   26158.34280918 -.00000279  00000+0  00000+0 0  9993
2 43611   0.0191 287.3508 0001999 140.4295  89.3964  1.00271186 28548
AZERSPACE 2 (IS-38)     
1 43632U 18074A   26159.13874602  .00000152  00000+0  00000+0 0  9998
2 43632   0.0198 322.6461 0001460 110.9689 277.9789  1.00271189 28353
