OBJECT_NAME,OBJECT_ID,EPOCH,MEAN_MOTION,ECCENTRICITY,INCLINATION,RA_OF_ASC_NODE,ARG_OF_PERICENTER,MEAN_ANOMALY,EPHEMERIS_TYPE,CLASSIFICATION_TYPE,NORAD_CAT_ID,ELEMENT_SET_NO,REV_AT_EPOCH,BSTAR,MEAN_MOTION_DOT,MEAN_MOTION_DDOT
GSAT-17,2017-040B,2026-06-08T03:33:38.826720,1.00271461,.0001616,0.1029,88.3931,214.7033,100.3675,0,U,42815,999,3269,0,-.242E-5,0
INTELSAT 35E (IS-35E),2017-041A,2026-06-07T16:41:08.837088,1.00272821,.0001842,0.0202,62.5317,13.9992,35.3772,0,U,42818,999,3272,0,-.223E-5,0
COSMOS 2520,2017-046A,2026-06-07T11:55:51.060000,1.00272500,.000113,0.0450,86.1983,65.7096,327.9728,0,U,42907,999,3230,0,.151E-5,0
TDRS 13,2017-047A,2026-06-08T03:07:38.536896,1.00272097,.0014613,3.4491,2.4925,105.1376,184.3676,0,U,42915,999,3225,0,-.86E-6,0
QZS-3 (MICHIBIKI-3),2017-048A,2026-06-08T04:18:38.737728,1.00269855,.0002716,0.0576,183.8974,262.6865,1.6793,0,U,42917,999,3216,0,-.332E-5,0
AMAZONAS 5,2017-053A,2026-06-08T02:49:35.850720,1.00270654,.0002511,0.0330,320.7434,68.9782,208.2063,0,U,42934,999,3195,0,-.267E-5,0
ASIASAT 9,2017-057A,2026-06-07T22:33:51.194304,1.00270474,.0002482,0.0114,80.9491,346.4825,289.4719,0,U,42942,999,3176,0,-.344E-5,0
INTELSAT 37E (IS-37E),2017-059A,2026-06-08T03:07:38.536896,1.00268330,.0002401,0.0181,345.8268,116.5219,183.0883,0,U,42950,999,3197,0,0,0
BSAT-4A,2017-059B,2026-06-07T19:04:58.329120,1.00268742,.000433,0.0352,2.7050,66.0952,223.4540,0,U,42951,999,3170,0,-.335E-5,0
QZS-4 (MICHIBIKI-4),2017-062A,2026-06-07T08:54:53.639424,1.00254196,.0744946,40.1143,343.6087,271.5683,272.0991,0,U,42965,999,3170,0,-.311E-5,0
SES-11 (ECHOSTAR 105),2017-063A,2026-06-08T02:37:01.701408,1.00271011,.0002744,0.0150,343.5044,104.7426,102.5646,0,U,42967,999,3163,0,-.74E-6,0
KOREASAT 5A,2017-067A,2026-06-08T00:13:56.034912,1.00272022,.0000637,0.0132,310.2115,129.6603,293.1789,0,U,42984,999,3143,0,-.343E-5,0
ALCOMSAT 1,2017-078A,2026-06-08T03:15:38.481120,1.00272981,.0002409,0.0325,68.8948,4.4985,207.2511,0,U,43039,999,3120,0,-.17E-5,0
SBIRS GEO-3 (USA 282),2018-009A,2026-06-08T00:38:53.601792,1.00272376,.0002143,2.1771,11.6413,61.7034,33.4097,0,U,43162,999,3075,0,.143E-5,0
AL YAH 3,2018-012A,2026-06-08T03:07:38.536896,1.00271560,.0004152,1.5275,83.2194,354.4241,205.7013,0,U,43174,999,3075,0,-.14E-5,0
SES-14,2018-012B,2026-06-08T02:53:27.979872,1.00271159,.0001107,0.0187,22.5223,56.9226,172.9426,0,U,43175,999,693,0,-.263E-5,0
GOES 17,2018-022A,2026-06-08T00:58:44.198976,1.00271990,.0000634,0.9130,85.8739,8.7123,87.0479,0,U,43226,999,3033,0,-.167E-5,0
HISPASAT 30W-6,2018-023A,2026-06-08T03:15:38.481120,1.00270551,.0006135,0.0445,40.4603,26.8979,208.0868,0,U,43228,999,3031,0,-.201E-5,0
SUPERBIRD-B3,2018-033A,2026-06-08T04:38:51.700416,1.00270977,.0001313,0.0208,292.3149,165.6877,30.3100,0,U,43271,999,2997,0,-.77E-6,0
HYLAS 4,2018-033B,2026-06-07T18:24:04.353984,1.00269650,.0001187,0.0217,65.2841,12.7835,60.6584,0,U,43272,999,2997,0,-.219E-5,0
IRNSS-1I,2018-035A,2026-06-07T20:31:48.345024,1.00270205,.0016794,28.7324,74.3437,191.1126,353.6742,0,U,43286,999,2998,0,.93E-6,0
USA 283,2018-036A,2026-06-07T10:38:30.691392,1.00268454,.0000458,0.0123,333.7419,159.1187,56.7029,0,U,43339,999,2519,0,0,0
COSMOS 2526,2018-037A,2026-06-07T17:27:27.880128,1.00272279,.0000652,0.0266,74.0498,173.6830,38.3059,0,U,43432,999,2986,0,-.33E-5,0
APSTAR-6C,2018-041A,2026-06-08T05:27:51.852672,1.00273495,.0001228,0.0268,326.8455,29.4909,116.2579,0,U,43450,999,2972,0,-.302E-5,0
BANGABANDHUSAT-1,2018-044A,2026-06-08T01:58:04.914048,1.00272268,.0001977,0.0395,97.1689,351.3304,316.6044,0,U,43463,999,2961,0,-.347E-5,0
SES-12,2018-049A,2026-06-08T03:33:53.804160,1.00271715,.000096,0.0264,43.0119,262.2840,99.7291,0,U,43488,999,2932,0,-.254E-5,0
FENGYUN 2H,2018-050A,2026-06-08T01:46:58.478880,1.00271427,.0001516,3.0070,79.1794,126.1581,157.3291,0,U,43491,999,2934,0,-.115E-5,0
BEIDOU-2 IGSO-7,2018-057A,2026-06-07T22:56:30.122880,1.00254381,.0104854,55.1932,163.1382,237.9598,310.0357,0,U,43539,999,2903,0,.24E-6,0
TELSTAR 19V,2018-059A,2026-06-08T02:48:58.411008,1.00269756,.0002669,0.0027,199.5599,271.3595,124.8244,0,U,43562,999,2905,0,-.264E-5,0
TELKOM 4 (MERAH PUTIH),2018-064A,2026-06-07T22:29:44.087712,1.00268773,.0001408,0.0162,329.7438,140.0228,232.0053,0,U,43587,999,2878,0,0,0
TELSTAR 18V,2018-069A,2026-06-07T08:13:38.713152,1.00271186,.0001999,0.0191,287.3508,140.4295,89.3964,0,U,43611,999,2854,0,-.279E-5,0
AZERSPACE 2 (IS-38),2018-074A,2026-06-08T03:19:47.656128,1.00271189,.000146,0.0198,322.6461,110.9689,277.9789,0,U,43632,999,2835,0,.152E-5,0
